[{"OBJECT_NAME":"HULIANWANG DIGUI-42","OBJECT_ID":"2025-162C","EPOCH":"2026-03-09T21:54:21.663936","MEAN_MOTION":13.2933237,"ECCENTRICITY":0.00010183,"INCLINATION":49.9957,"RA_OF_ASC_NODE":261.8353,"ARG_OF_PERICENTER":92.1507,"MEAN_ANOMALY":267.9482,"EPHEMERIS_TYPE":0,"CLASSIFICATION_TYPE":"U","NORAD_CAT_ID":65045,"ELEMENT_SET_NO":999,"REV_AT_EPOCH":3015,"BSTAR":9.3040932e-5,"MEAN_MOTION_DOT":-8.1e-7,"MEAN_MOTION_DDOT":0},{"OBJECT_NAME":"COSMOS 1691 DEB","OBJECT_ID":"1985-094L","EPOCH":"2026-03-07T22:09:28.514880","MEAN_MOTION":13.19792324,"ECCENTRICITY":0.00487005,"INCLINATION":82.6355,"RA_OF_ASC_NODE":224.5327,"ARG_OF_PERICENTER":346.5093,"MEAN_ANOMALY":138.7403,"EPHEMERIS_TYPE":0,"CLASSIFICATION_TYPE":"U","NORAD_CAT_ID":16267,"ELEMENT_SET_NO":999,"REV_AT_EPOCH":53103,"BSTAR":0.0093500911,"MEAN_MOTION_DOT":3.784e-5,"MEAN_MOTION_DDOT":0}]
